OBJECT_NAME,OBJECT_ID,EPOCH,MEAN_MOTION,ECCENTRICITY,INCLINATION,RA_OF_ASC_NODE,ARG_OF_PERICENTER,MEAN_ANOMALY,EPHEMERIS_TYPE,CLASSIFICATION_TYPE,NORAD_CAT_ID,ELEMENT_SET_NO,REV_AT_EPOCH,BSTAR,MEAN_MOTION_DOT,MEAN_MOTION_DDOT
STARLINK-1202,2020-012F,2026-06-22T10:51:22.485312,15.35975847,.00026889,53.1552,271.1875,318.4501,41.6298,0,U,45183,999,35101,.10255703E-2,.36234E-3,0
STARLINK-1216,2020-012H,2026-06-22T18:05:06.095328,15.36363577,.00029001,53.1536,269.5977,308.3742,51.7001,0,U,45185,999,35100,.10452297E-2,.37409E-3,0
STARLINK-1225,2020-012K,2026-06-22T16:29:11.975424,15.36380905,.00031264,53.1551,270.3713,315.5123,44.5629,0,U,45187,999,35103,.10377795E-2,.3716E-3,0
STARLINK-1230,2020-012M,2026-06-22T13:40:00.917184,15.36196290,.00029307,53.1538,271.0086,314.4196,45.6567,0,U,45189,999,34824,.10488522E-2,.37337E-3,0
STARLINK-1234,2020-012N,2026-06-22T20:00:01.999872,15.80867495,.00016234,53.0336,165.4423,91.5367,329.5573,0,U,45190,999,602,.47280336E-3,.93626E-3,0
STARLINK-1269,2020-012V,2026-06-22T13:32:32.302464,15.36265039,.00017214,53.1542,270.8716,337.2380,22.8546,0,U,45197,999,35099,.11231063E-2,.40109E-3,0
STARLINK-1154,2020-012W,2026-06-22T09:59:57.581088,15.64867979,.00038425,53.0402,223.2463,24.2256,335.8938,0,U,45198,999,35159,.31137944E-3,.30562E-3,0
STARLINK-1199,2020-012Z,2026-06-22T15:58:10.147008,15.36271467,.0004309,53.1540,254.6657,333.0980,26.9799,0,U,45201,999,35125,.96898681E-3,.3454E-3,0
STARLINK-1209,2020-012AE,2026-06-22T20:00:01.999872,15.70645443,.00012214,53.0361,181.1408,81.5332,90.1519,0,U,45206,999,594,.95791351E-2,.1359468E-1,0
STARLINK-1231,2020-012AL,2026-06-21T22:27:20.796768,15.28761745,.00022752,53.0379,253.9271,65.0198,295.1037,0,U,45212,999,35113,.11028344E-2,.31028E-3,0
STARLINK-1271,2020-012AR,2026-06-22T11:11:01.114368,15.36430849,.00040935,53.1547,255.7045,344.7546,15.3333,0,U,45217,999,35122,.9597734E-3,.34383E-3,0
STARLINK-1191,2020-012AW,2026-06-22T11:20:18.011616,15.40525985,.00032645,53.1533,228.2498,317.2734,42.8017,0,U,45222,999,35161,.96292516E-3,.39491E-3,0
STARLINK-1212,2020-012AX,2026-06-22T20:00:01.999872,15.70734327,.00013781,53.0385,196.5748,84.7533,72.8151,0,U,45223,999,600,.10081041E-3,.12168E-3,0
STARLINK-1215,2020-012AZ,2026-06-22T12:41:44.633184,15.36586258,.00049157,53.1548,229.6602,342.8808,17.2029,0,U,45225,999,35155,.98998271E-3,.35667E-3,0
STARLINK-1221,2020-012BB,2026-06-22T02:01:57.151200,15.45233119,.00034048,53.0637,133.6124,12.3753,347.7336,0,U,45227,999,35283,.25157197E-3,.11739E-3,0
STARLINK-1222,2020-012BC,2026-06-22T08:12:24.386688,15.56263340,.0003631,53.0511,198.5963,39.8967,320.2310,0,U,45228,999,35188,.36939634E-3,.26016E-3,0
STARLINK-1226,2020-012BD,2026-06-22T12:53:02.946624,15.45722411,.00050869,53.1545,224.7207,342.7358,17.3475,0,U,45229,999,35156,.9203069E-3,.45036E-3,0
STARLINK-1227,2020-012BE,2026-06-22T09:59:39.660864,15.45803318,.00049658,53.1519,225.3872,334.7468,25.3296,0,U,45230,999,35166,.92791676E-3,.45541E-3,0
STARLINK-1246,2020-012BK,2026-06-22T18:22:40.541664,15.36304878,.00030051,53.1539,269.5521,309.1765,50.8971,0,U,45235,999,35108,.99812807E-3,.3563E-3,0
STARLINK-1270,2020-012BM,2026-06-22T20:00:01.999872,15.69838695,.00017207,53.0387,198.3595,88.3615,151.8513,0,U,45237,999,572,.10860835E-3,.12659E-3,0
JCSAT-17,2020-013A,2026-06-22T20:13:39.268704,1.00272268,.00029172,5.3919,356.9361,91.4986,262.0115,0,U,45245,999,2328,0,-.317E-5,0
GEO-KOMPSAT-2B,2020-013B,2026-06-22T20:11:31.972128,1.00271390,.00002273,0.0426,181.6004,90.0884,70.4719,0,U,45246,999,2333,0,-.34E-5,0
MERIDIAN 9,2020-015A,2026-06-17T11:12:57.779424,2.00603792,.68572855,65.5293,318.9476,277.8991,15.3211,0,U,45254,999,4629,0,-.81E-6,0
BEIDOU-3 G2,2020-017A,2026-06-22T19:57:37.349856,1.00271807,.00022489,2.8763,47.4549,34.6092,208.4333,0,U,45344,999,2331,0,-.139E-5,0
COSMOS 2545 [GLONASS-M],2020-018A,2026-06-22T09:16:10.204608,2.13102349,.00085569,64.3519,312.2361,229.6925,130.2259,0,U,45358,999,4877,0,-.76E-6,0
STARLINK-1279,2020-019A,2026-06-22T20:19:39.183456,15.81305638,.00020397,53.0343,299.9579,40.7310,319.3863,0,U,45360,999,34717,.49841701E-3,.100851E-2,0
STARLINK-1301,2020-019B,2026-06-22T08:15:30.707424,15.83193207,.00029827,53.0335,304.6707,338.5959,21.4938,0,U,45361,999,34707,.45608744E-3,.100785E-2,0
STARLINK-1262,2020-019G,2026-06-22T08:32:19.167360,15.35300248,.00037863,53.1551,38.0264,133.9381,226.1935,0,U,45366,999,34579,.10209348E-2,.3529E-3,0
STARLINK-1273,2020-019H,2026-06-22T13:45:25.642944,15.58948743,.00030629,53.0443,10.0699,112.0495,248.0842,0,U,45367,999,34618,.89981967E-3,.71301E-3,0
STARLINK-1277,2020-019K,2026-06-22T20:00:01.999872,15.68484403,.00010968,53.0413,1.9837,90.3850,251.9155,0,U,45369,999,600,-.44280555E-4,-.5676E-4,0
