STARLINK-1202           
1 45183U 20012F   26173.45234358  .00036234  00000+0  10256-2 0  9992
2 45183  53.1552 271.1875 0002688 318.4501  41.6298 15.35975847351015
STARLINK-1216           
1 45185U 20012H   26173.75354277  .00037409  00000+0  10452-2 0  9993
2 45185  53.1536 269.5977 0002900 308.3742  51.7001 15.36363577351000
STARLINK-1225           
1 45187U 20012K   26173.68694416  .00037160  00000+0  10378-2 0  9990
2 45187  53.1551 270.3713 0003126 315.5123  44.5629 15.36380905351034
STARLINK-1230           
1 45189U 20012M   26173.56945506  .00037337  00000+0  10489-2 0  9997
2 45189  53.1538 271.0086 0002930 314.4196  45.6567 15.36196290348246
STARLINK-1234           
1 45190U 20012N   26173.83335648  .00093626  00000+0  47280-3 0  9992
2 45190  53.0336 165.4423 0001623  91.5367 329.5573 15.80867495  6024
STARLINK-1269           
1 45197U 20012V   26173.56426276  .00040109  00000+0  11231-2 0  9991
2 45197  53.1542 270.8716 0001721 337.2380  22.8546 15.36265039350999
STARLINK-1154           
1 45198U 20012W   26173.41663867  .00030562  00000+0  31138-3 0  9996
2 45198  53.0402 223.2463 0003842  24.2256 335.8938 15.64867979351597
STARLINK-1199           
1 45201U 20012Z   26173.66539522  .00034540  00000+0  96899-3 0  9993
2 45201  53.1540 254.6657 0004309 333.0980  26.9799 15.36271467351259
STARLINK-1209           
1 45206U 20012AE  26173.83335648  .01359468  00000+0  95791-2 0  9999
2 45206  53.0361 181.1408 0001221  81.5332  90.1519 15.70645443  5940
STARLINK-1231           
1 45212U 20012AL  26172.93565737  .00031028  00000+0  11028-2 0  9999
2 45212  53.0379 253.9271 0002275  65.0198 295.1037 15.28761745351133
STARLINK-1271           
1 45217U 20012AR  26173.46598512  .00034383  00000+0  95977-3 0  9993
2 45217  53.1547 255.7045 0004093 344.7546  15.3333 15.36430849351227
STARLINK-1191           
1 45222U 20012AW  26173.47243069  .00039491  00000+0  96293-3 0  9991
2 45222  53.1533 228.2498 0003264 317.2734  42.8017 15.40525985351616
STARLINK-1212           
1 45223U 20012AX  26173.83335648  .00012168  00000+0  10081-3 0  9990
2 45223  53.0385 196.5748 0001378  84.7533  72.8151 15.70734327  6000
STARLINK-1215           
1 45225U 20012AZ  26173.52898881  .00035667  00000+0  98998-3 0  9993
2 45225  53.1548 229.6602 0004915 342.8808  17.2029 15.36586258351554
STARLINK-1221           
1 45227U 20012BB  26173.08468925  .00011739  00000+0  25157-3 0  9999
2 45227  53.0637 133.6124 0003404  12.3753 347.7336 15.45233119352836
STARLINK-1222           
1 45228U 20012BC  26173.34194892  .00026016  00000+0  36940-3 0  9994
2 45228  53.0511 198.5963 0003631  39.8967 320.2310 15.56263340351885
STARLINK-1226           
1 45229U 20012BD  26173.53683966  .00045036  00000+0  92031-3 0  9997
2 45229  53.1545 224.7207 0005086 342.7358  17.3475 15.45722411351561
STARLINK-1227           
1 45230U 20012BE  26173.41643126  .00045541  00000+0  92792-3 0  9995
2 45230  53.1519 225.3872 0004965 334.7468  25.3296 15.45803318351664
STARLINK-1246           
1 45235U 20012BK  26173.76574701  .00035630  00000+0  99813-3 0  9999
2 45235  53.1539 269.5521 0003005 309.1765  50.8971 15.36304878351088
STARLINK-1270           
1 45237U 20012BM  26173.83335648  .00012659  00000+0  10861-3 0  9996
2 45237  53.0387 198.3595 0001720  88.3615 151.8513 15.69838695  5728
JCSAT-17                
1 45245U 20013A   26173.84281561 -.00000317  00000+0  00000+0 0  9990
2 45245   5.3919 356.9361 0002917  91.4986 262.0115  1.00272268 23288
GEO-KOMPSAT-2B          
1 45246U 20013B   26173.84134227 -.00000340  00000+0  00000+0 0  9993
2 45246   0.0426 181.6004 0000227  90.0884  70.4719  1.00271390 23337
MERIDIAN 9              
1 45254U 20015A   26168.46733541 -.00000081  00000+0  00000+0 0  9992
2 45254  65.5293 318.9476 6857285 277.8991  15.3211  2.00603792 46297
BEIDOU-3 G2             
1 45344U 20017A   26173.83168229 -.00000139  00000+0  00000+0 0  9990
2 45344   2.8763  47.4549 0002248  34.6092 208.4333  1.00271807 23319
COSMOS 2545 [GLONASS-M] 
1 45358U 20018A   26173.38622922 -.00000076  00000+0  00000+0 0  9991
2 45358  64.3519 312.2361 0008556 229.6925 130.2259  2.13102349 48775
STARLINK-1279           
1 45360U 20019A   26173.84698129  .00100851  00000+0  49842-3 0  9990
2 45360  53.0343 299.9579 0002039  40.7310 319.3863 15.81305638347172
STARLINK-1301           
1 45361U 20019B   26173.34410541  .00100785  00000+0  45609-3 0  9999
2 45361  53.0335 304.6707 0002982 338.5959  21.4938 15.83193207347077
STARLINK-1262           
1 45366U 20019G   26173.35577740  .00035290  00000+0  10209-2 0  9995
2 45366  53.1551  38.0264 0003786 133.9381 226.1935 15.35300248345798
STARLINK-1273           
1 45367U 20019H   26173.57321346  .00071301  00000+0  89982-3 0  9997
2 45367  53.0443  10.0699 0003062 112.0495 248.0842 15.58948743346188
STARLINK-1277           
1 45369U 20019K   26173.83335648 -.00005676  00000+0 -44281-4 0  9996
2 45369  53.0413   1.9837 0001096  90.3850 251.9155 15.68484403  6001
